NORAD_CAT_ID,OBJECT_NAME,OBJECT_TYPE,EPOCH,MEAN_MOTION,ECCENTRICITY,INCLINATION,RA_OF_ASC_NODE,ARG_OF_PERICENTER,MEAN_ANOMALY,BSTAR,MEAN_MOTION_DOT,MEAN_MOTION_DDOT,TLE_LINE0,TLE_LINE1,TLE_LINE2,SEMIMAJOR_AXIS,PERIOD,APOGEE,PERIGEE,DECAYED
55775.0,STARLINK-5809,PAYLOAD,2023-04-15 21:18:28,15.69913886,0.00035,69.9993,33.9336,269.931,90.1485,1.345e-05,1.404e-05,0.0,0 STARLINK-5809,1 55775U 23028AL  23105.88783398  .00001404  00000-0  13450-4 0  9995,2 55775  69.9993  33.9336 0003500 269.9310  90.1485 15.69913886  7449,6737.28,91.725,361.503,356.787,0.0
55775.0,STARLINK-5809,PAYLOAD,2023-04-16 04:57:15,15.69911777,0.0002846,69.9998,33.0377,277.5788,82.5084,-1.9727e-05,-2.582e-05,0.0,0 STARLINK-5809,1 55775U 23028AL  23106.20642579 -.00002582  00000-0 -19727-4 0  9990,2 55775  69.9998  33.0377 0002846 277.5788  82.5084 15.69911777  7487,6737.286,91.725,361.069,357.234,0.0
55775.0,STARLINK-5809,PAYLOAD,2023-04-16 20:14:46,15.69913039,0.0003505,69.9993,31.2456,263.9251,96.1545,3.1503e-07,-1.75e-06,0.0,0 STARLINK-5809,1 55775U 23028AL  23106.84358833 -.00000175  00000-0  31503-6 0  9990,2 55775  69.9993  31.2456 0003505 263.9251  96.1545 15.69913039  7584,6737.283,91.725,361.509,356.786,0.0
55775.0,STARLINK-5809,PAYLOAD,2023-04-16 21:46:31,15.69913367,0.0003502,69.9992,31.0664,263.7703,96.3093,5.4439e-07,-1.47e-06,0.0,0 STARLINK-5809,1 55775U 23028AL  23106.90730516 -.00000147  00000-0  54439-6 0  9991,2 55775  69.9992  31.0664 0003502 263.7703  96.3093 15.69913367  7606,6737.282,91.725,361.506,356.787,0.0
55775.0,STARLINK-5809,PAYLOAD,2023-04-17 05:25:15,15.6992562,0.0002951,69.9999,30.171,252.9711,107.1162,1.5004e-05,1.592e-05,0.0,0 STARLINK-5809,1 55775U 23028AL  23107.22587897  .00001592  00000-0  15004-4 0  9996,2 55775  69.9999  30.1710 0002951 252.9711 107.1162 15.69925620  7659,6737.247,91.724,361.1,357.124,0.0
55775.0,STARLINK-5809,PAYLOAD,2023-04-17 20:42:48,15.69915833,0.0003826,70.0005,28.3807,275.3183,84.7576,-1.5324e-05,-2.055e-05,0.0,0 STARLINK-5809,1 55775U 23028AL  23107.86305981 -.00002055  00000-0 -15324-4 0  9990,2 55775  70.0005  28.3807 0003826 275.3183  84.7576 15.69915833  7744,6737.275,91.725,361.717,356.562,0.0
55775.0,STARLINK-5809,PAYLOAD,2023-04-18 01:18:02,15.69933527,0.000325,69.9998,27.8453,255.5189,104.5646,1.549e-06,-2.6e-07,0.0,0 STARLINK-5809,1 55775U 23028AL  23108.05419505 -.00000026  00000-0  15490-5 0  9990,2 55775  69.9998  27.8453 0003250 255.5189 104.5646 15.69933527  7772,6737.224,91.724,361.279,356.9,0.0
55775.0,STARLINK-5809,PAYLOAD,2023-04-18 04:21:32,15.69932014,0.0003578,69.9987,27.4847,266.7679,93.3108,6.4629e-06,5.65e-06,0.0,0 STARLINK-5809,1 55775U 23028AL  23108.18162762  .00000565  00000-0  64629-5 0  9999,2 55775  69.9987  27.4847 0003578 266.7679  93.3108 15.69932014  7806,6737.229,91.724,361.504,356.683,0.0
55775.0,STARLINK-5809,PAYLOAD,2023-04-18 18:07:19,15.69915748,0.0002797,70.0004,25.873,258.4992,101.5889,3.8011e-06,2.45e-06,0.0,0 STARLINK-5809,1 55775U 23028AL  23108.75509188  .00000245  00000-0  38011-5 0  9990,2 55775  70.0004  25.8730 0002797 258.4992 101.5889 15.69915748  7881,6737.275,91.725,361.024,357.256,0.0
55775.0,STARLINK-5809,PAYLOAD,2023-04-19 04:49:33,15.69941311,0.0003203,69.9995,24.6176,255.7664,104.3176,2.2488e-05,2.494e-05,0.0,0 STARLINK-5809,1 55775U 23028AL  23109.20108741  .00002494  00000-0  22488-4 0  9999,2 55775  69.9995  24.6176 0003203 255.7664 104.3176 15.69941311  7950,6737.202,91.723,361.225,356.909,0.0
55775.0,STARLINK-5809,PAYLOAD,2023-04-20 03:45:51,15.6992036,0.000368,69.9999,21.9316,262.5548,97.5229,1.6581e-05,1.781e-05,0.0,0 STARLINK-5809,1 55775U 23028AL  23110.15684831  .00001781  00000-0  16581-4 0  9999,2 55775  69.9999  21.9316 0003680 262.5548  97.5229 15.69920360  8107,6737.262,91.724,361.606,356.648,0.0
55775.0,STARLINK-5809,PAYLOAD,2023-04-21 04:13:52,15.69938723,0.0003462,69.9984,19.0632,262.0704,98.0099,1.2813e-06,-5.9e-07,0.0,0 STARLINK-5809,1 55775U 23028AL  23111.17630667 -.00000059  00000-0  12813-5 0  9993,2 55775  69.9984  19.0632 0003462 262.0704  98.0099 15.69938723  8267,6737.209,91.723,361.407,356.742,0.0
55775.0,STARLINK-5809,PAYLOAD,2023-04-21 17:59:40,15.69908827,0.0003995,69.998,17.4532,267.3333,92.7405,1.3093e-06,-5.6e-07,0.0,0 STARLINK-5809,1 55775U 23028AL  23111.74977480 -.00000056  00000-0  13093-5 0  9991,2 55775  69.9980  17.4532 0003995 267.3333  92.7405 15.69908827  8355,6737.295,91.725,361.851,356.468,0.0
55775.0,STARLINK-5809,PAYLOAD,2023-04-21 19:31:25,15.69912281,0.0003763,69.9983,17.2743,271.1943,88.8822,5.1163e-06,4.02e-06,0.0,0 STARLINK-5809,1 55775U 23028AL  23111.81348982  .00000402  00000-0  51163-5 0  9992,2 55775  69.9983  17.2743 0003763 271.1943  88.8822 15.69912281  8373,6737.285,91.725,361.685,356.615,0.0
55775.0,STARLINK-5809,PAYLOAD,2023-04-22 16:55:57,15.69924442,0.0003798,69.9979,14.7672,266.168,93.9082,-1.2425e-05,-1.707e-05,0.0,0 STARLINK-5809,1 55775U 23028AL  23112.70552359 -.00001707  00000-0 -12425-4 0  9994,2 55775  69.9979  14.7672 0003798 266.1680  93.9082 15.69924442  8503,6737.25,91.724,361.674,356.556,0.0
55775.0,STARLINK-5809,PAYLOAD,2023-04-23 02:06:28,15.69912405,0.0003252,69.9978,13.6894,253.3742,106.7097,-2.1192e-05,-2.759e-05,0.0,0 STARLINK-5809,1 55775U 23028AL  23113.08783447 -.00002759  00000-0 -21192-4 0  9999,2 55775  69.9978  13.6894 0003252 253.3742 106.7097 15.69912405  8570,6737.285,91.725,361.341,356.959,0.0
55775.0,STARLINK-5809,PAYLOAD,2023-04-23 17:23:58,15.69938677,0.0003389,69.9987,11.8996,256.83,103.2517,1.5381e-05,1.638e-05,0.0,0 STARLINK-5809,1 55775U 23028AL  23113.72497786  .00001638  00000-0  15381-4 0  9994,2 55775  69.9987  11.8996 0003389 256.8300 103.2517 15.69938677  8671,6737.209,91.723,361.358,356.791,0.0
55775.0,STARLINK-5809,PAYLOAD,2023-04-24 02:34:28,15.6994271,0.0003454,69.9987,10.8251,261.4823,98.5981,1.6174e-05,1.734e-05,0.0,0 STARLINK-5809,1 55775U 23028AL  23114.10727264  .00001734  00000-0  16174-4 0  9992,2 55775  69.9987  10.8251 0003454 261.4823  98.5981 15.69942710  8730,6737.198,91.723,361.39,356.736,0.0
55775.0,STARLINK-5809,PAYLOAD,2023-04-25 03:02:35,15.69874138,0.0003112,69.9997,7.9592,306.5502,53.5407,-1.3287e-05,-1.806e-05,0.0,0 STARLINK-5809,1 55775U 23028AL  23115.12679857 -.00001806  00000-0 -13287-4 0  9993,2 55775  69.9997   7.9592 0003112 306.5502  53.5407 15.69874138  8880,6737.394,91.727,361.356,357.162,0.0
55775.0,STARLINK-5809,PAYLOAD,2023-04-26 01:58:49,15.69928171,0.0002771,70.0003,5.2722,264.0214,96.0666,1.1357e-05,1.153e-05,0.0,0 STARLINK-5809,1 55775U 23028AL  23116.08251518  .00001153  00000-0  11357-4 0  9998,2 55775  70.0003   5.2722 0002771 264.0214  96.0666 15.69928171  9040,6737.24,91.724,360.971,357.238,0.0
55775.0,STARLINK-5809,PAYLOAD,2023-04-26 20:19:50,15.6990516,0.0003959,69.9984,3.1225,264.1974,95.8771,5.1229e-05,5.947e-05,0.0,0 STARLINK-5809,1 55775U 23028AL  23116.84711036  .00005947  00000-0  51229-4 0  9995,2 55775  69.9984   3.1225 0003959 264.1974  95.8771 15.69905160  9163,6737.305,91.725,361.838,356.503,0.0
55775.0,STARLINK-5809,PAYLOAD,2023-04-27 02:26:50,15.69911104,0.0004128,69.9992,2.4051,263.1452,96.9274,5.4182e-05,6.304e-05,0.0,0 STARLINK-5809,1 55775U 23028AL  23117.10197489  .00006304  00000-0  54182-4 0  9994,2 55775  69.9992   2.4051 0004128 263.1452  96.9274 15.69911104  9198,6737.288,91.725,361.934,356.372,0.0
55775.0,STARLINK-5809,PAYLOAD,2023-04-28 09:01:53,15.69925464,0.0003661,69.9976,358.8241,259.1144,100.964,-2.8271e-05,-3.611e-05,0.0,0 STARLINK-5809,1 55775U 23028AL  23118.37631805 -.00003611  00000-0 -28271-4 0  9999,2 55775  69.9976 358.8241 0003661 259.1144 100.9640 15.69925464  9392,6737.247,91.724,361.579,356.646,0.0
55775.0,STARLINK-5809,PAYLOAD,2023-04-28 19:44:08,15.69927003,0.0003758,69.9981,357.5692,257.847,102.2304,4.95e-06,3.82e-06,0.0,0 STARLINK-5809,1 55775U 23028AL  23118.82232462  .00000382  00000-0  49500-5 0  9994,2 55775  69.9981 357.5692 0003758 257.8470 102.2304 15.69927003  9469,6737.243,91.724,361.64,356.576,0.0
55775.0,STARLINK-5809,PAYLOAD,2023-04-29 01:51:09,15.69917856,0.000341,69.9984,356.853,256.565,103.5165,-6.161e-06,-9.53e-06,0.0,0 STARLINK-5809,1 55775U 23028AL  23119.07719873 -.00000953  00000-0 -61610-5 0  9990,2 55775  69.9984 356.8530 0003410 256.5650 103.5165 15.69917856  9505,6737.269,91.725,361.431,356.837,0.0
55775.0,STARLINK-5809,PAYLOAD,2023-04-29 17:08:40,15.69916317,0.0003385,69.997,355.0635,255.8952,104.1868,2.0756e-05,2.283e-05,0.0,0 STARLINK-5809,1 55775U 23028AL  23119.71435862  .00002283  00000-0  20756-4 0  9995,2 55775  69.9970 355.0635 0003385 255.8952 104.1868 15.69916317  9604,6737.273,91.725,361.419,356.858,0.0
55775.0,STARLINK-5809,PAYLOAD,2023-04-30 02:19:11,15.69918692,0.0003441,69.9975,353.9879,264.1184,95.962,2.0641e-05,2.269e-05,0.0,0 STARLINK-5809,1 55775U 23028AL  23120.09665952  .00002269  00000-0  20641-4 0  9990,2 55775  69.9975 353.9879 0003441 264.1184  95.9620 15.69918692  9677,6737.267,91.724,361.45,356.813,0.0
55775.0,STARLINK-5809,PAYLOAD,2023-04-30 17:36:43,15.6991883,0.0003383,69.9978,352.1952,268.9011,91.1797,-4.9988e-06,-8.14e-06,0.0,0 STARLINK-5809,1 55775U 23028AL  23120.73383617 -.00000814  00000-0 -49988-5 0  9998,2 55775  69.9978 352.1952 0003383 268.9011  91.1797 15.69918830  9766,6737.266,91.724,361.41,356.852,0.0
55775.0,STARLINK-5809,PAYLOAD,2023-05-01 01:15:28,15.69925175,0.0003128,69.9977,351.2993,272.0981,87.9856,-1.3117e-06,-3.7e-06,0.0,0 STARLINK-5809,1 55775U 23028AL  23121.05241610 -.00000370  00000-0 -13117-5 0  9992,2 55775  69.9977 351.2993 0003128 272.0981  87.9856 15.69925175  9814,6737.248,91.724,361.22,357.006,0.0
55775.0,STARLINK-5809,PAYLOAD,2023-05-01 02:47:13,15.69925871,0.0003174,69.9977,351.1199,271.1985,88.8848,-1.0003e-06,-3.33e-06,0.0,0 STARLINK-5809,1 55775U 23028AL  23121.11613214 -.00000333  00000-0 -10003-5 0  9992,2 55775  69.9977 351.1199 0003174 271.1985  88.8848 15.69925871  9832,6737.246,91.724,361.249,356.973,0.0
